GSAT0101 (GALILEO-PFM)  
1 37846U 11060A   25328.13020640 -.00000063  00000+0  00000+0 0  9990
2 37846  57.0574 347.3256 0002577 308.2281  51.7929  1.70475782 87620
GSAT0102 (GALILEO-FM2)  
1 37847U 11060B   25333.62482772 -.00000056  00000+0  00000+0 0  9991
2 37847  57.0566 347.1768 0004676 305.2654 232.3795  1.70475771 87728
GSAT0103 (GALILEO-FM3)  
1 38857U 12055A   25332.86294819  .00000055  00000+0  00000+0 0  9994
2 38857  55.6842 107.0477 0002241 266.7022  93.2527  1.70473322 81593
GSAT0201 (GALILEO 5)    
1 40128U 14050A   25332.37507827 -.00000048  00000+0  00000+0 0  9990
2 40128  49.0938 281.6492 1646488 171.7362 191.3851  1.85519533 74599
GSAT0202 (GALILEO 6)    
1 40129U 14050B   25333.70935098 -.00000054  00000+0  00000+0 0  9991
2 40129  49.1079 280.6784 1647266 172.5408 190.2825  1.85520097 76784
GSAT0203 (GALILEO 7)    
1 40544U 15017A   25333.18759692 -.00000056  00000+0  00000+0 0  9994
2 40544  56.8498 347.0502 0006496 266.8168  93.1521  1.70475942 65799
GSAT0204 (GALILEO 8)    
1 40545U 15017B   25332.85645426 -.00000056  00000+0  00000+0 0  9997
2 40545  56.8551 347.0768 0006242 259.3843 100.5886  1.70475529 28832
GSAT0205 (GALILEO 9)    
1 40889U 15045A   25331.45171263  .00000027  00000+0  00000+0 0  9994
2 40889  55.0089 227.1810 0005802  37.9359 322.1807  1.70472924 63570
GSAT0206 (GALILEO 10)   
1 40890U 15045B   25332.84552309  .00000026  00000+0  00000+0 0  9993
2 40890  55.0075 227.1375 0003560  32.1082 327.9865  1.70472951 63625
GSAT0209 (GALILEO 12)   
1 41174U 15079A   25333.01375871  .00000054  00000+0  00000+0 0  9994
2 41174  55.7045 106.7579 0002328 359.5232   0.4568  1.70474337 61369
GSAT0208 (GALILEO 11)   
1 41175U 15079B   25334.40706765  .00000048  00000+0  00000+0 0  9992
2 41175  55.7038 106.7167 0001887  11.7228 348.2564  1.70474193 61804
GSAT0211 (GALILEO 14)   
1 41549U 16030A   25332.77126296  .00000026  00000+0  00000+0 0  9994
2 41549  55.1573 227.2083 0003761   3.3414 356.7341  1.70472998 59254
GSAT0210 (GALILEO 13)   
1 41550U 16030B   25333.02872365  .00000026  00000+0  00000+0 0  9990
2 41550  55.1566 227.1992 0001282 243.2248 116.8349  1.70473428 59254
GSAT0207 (GALILEO 15)   
1 41859U 16069A   25333.89365695  .00000050  00000+0  00000+0 0  9999
2 41859  55.3745 106.6061 0002086 324.5277  35.4358  1.70474234 56005
GSAT0212 (GALILEO 16)   
1 41860U 16069B   25333.16075799  .00000053  00000+0  00000+0 0  9997
2 41860  55.3717 106.6219 0002283  36.1467 323.8485  1.70474484 56245
GSAT0213 (GALILEO 17)   
1 41861U 16069C   25332.35517975  .00000054  00000+0  00000+0 0  9996
2 41861  55.3734 106.6518 0001972 283.8228  76.1363  1.70474759 56098
GSAT0214 (GALILEO 18)   
1 41862U 16069D   25333.67432713  .00000051  00000+0  00000+0 0  9996
2 41862  55.3728 106.6081 0001037 291.6100  68.3572  1.70474561 56248
GSAT0215 (GALILEO 19)   
1 43055U 17079A   25333.57781501  .00000027  00000+0  00000+0 0  9998
2 43055  55.1353 227.0004 0001588 310.5234  49.5360  1.70473718 49587
GSAT0216 (GALILEO 20)   
1 43056U 17079B   25333.28253604  .00000027  00000+0  00000+0 0  9995
2 43056  55.1352 227.0086 0002765 311.1377  48.9116  1.70473865 49596
GSAT0217 (GALILEO 21)   
1 43057U 17079C   25333.50325400  .00000027  00000+0  00000+0 0  9995
2 43057  55.1326 227.0006 0002756 340.6935  19.3693  1.70473704 49580
GSAT0218 (GALILEO 22)   
1 43058U 17079D   25334.30988615  .00000029  00000+0  00000+0 0  9990
2 43058  55.1332 226.9759 0002942 303.6931  56.3534  1.70473798 49626
GSAT0221 (GALILEO 25)   
1 43564U 18060A   25331.27959316 -.00000056  00000+0  00000+0 0  9993
2 43564  57.2311 347.2356 0006566 278.9073  81.0612  1.70475843 45727
GSAT0222 (GALILEO 26)   
1 43565U 18060B   25333.25866537 -.00000055  00000+0  00000+0 0  9995
2 43565  57.2346 347.1853 0006173 259.4518 100.5223  1.70475509 45802
GSAT0219 (GALILEO 23)   
1 43566U 18060C   25334.06641247 -.00000056  00000+0  00000+0 0  9996
2 43566  57.2334 347.1650 0005779 285.7575  74.2225  1.70475682 45790
GSAT0220 (GALILEO 24)   
1 43567U 18060D   25332.52756986 -.00000055  00000+0  00000+0 0  9992
2 43567  57.2337 347.2076 0006023 280.1858  79.7898  1.70475653 45753
GSAT0223 (GALILEO 27)   
1 49809U 21116A   25333.54107200 -.00000055  00000+0  00000+0 0  9995
2 49809  57.2226 347.0710 0004720 247.1953 105.5315  1.70475693 24774
GSAT0224 (GALILEO 28)   
1 49810U 21116B   25326.33490050 -.00000068  00000+0  00000+0 0  9998
2 49810  57.2249 347.2640 0003876 247.2257 115.5015  1.70476295 24681
GSAT0225 (GALILEO 29)   
1 59598U 24079A   25331.61609834  .00000053  00000+0  00000+0 0  9995
2 59598  54.9919 106.7188 0002273 170.1061 186.2217  1.70474678  9871
GSAT0227 (GALILEO 30)   
1 59600U 24079C   25334.15179932  .00000048  00000+0  00000+0 0  9996
2 59600  54.9888 106.6465 0003486 113.1426 246.8704  1.70474636  9975
GSAT0232 (GALILEO 32)   
1 61182U 24167A   25333.63653257  .00000027  00000+0  00000+0 0  9998
2 61182  55.2459 226.7912 0002243 216.1557  22.2275  1.70473184  7470
GSAT0226 (GALILEO 31)   
1 61183U 24167B   25330.35563098  .00000030  00000+0  00000+0 0  9992
2 61183  55.2460 226.8867 0000607 154.2460 343.2327  1.70473481  7395
